{
  "type": "FeatureCollection",
  "features": [
    {
      "type": "Feature",
      "properties": {
        "norad_id": 37081,
        "name": "FENGYUN 1C DEB",
        "group": "fengyun-1c-debris",
        "lat": 53.199618911159206,
        "lon": 140.60110552564285,
        "alt_km": 886.8747968321914,
        "timestamp": "2025-12-26T11:25:45.482141+00:00",
        "meta_object_name": "FENGYUN 1C DEB",
        "meta_object_id": "1999-025EFR",
        "meta_epoch": "2025-12-21T15:41:59.866368",
        "meta_mean_motion": 14.13992417,
        "meta_eccentricity": 0.0266704,
        "meta_inclination": 98.7038,
        "meta_ra_of_asc_node": 147.7147,
        "meta_arg_of_pericenter": 322.5085,
        "meta_mean_anomaly": 35.7745,
        "meta_ephemeris_type": 0,
        "meta_classification_type": "U",
        "meta_norad_cat_id": 37081,
        "meta_element_set_no": 999,
        "meta_rev_at_epoch": 58700,
        "meta_bstar": 0.0028473183,
        "meta_mean_motion_dot": 7.567e-05,
        "meta_mean_motion_ddot": 0,
        "tle_line1": "1 37081U 99025EFR 25355.65416512  .00007567  00000+0  28473-2 0  9994",
        "tle_line2": "2 37081  98.7038 147.7147 0266704 322.5085  35.7745 14.13992417587009"
      },
      "geometry": {
        "type": "Point",
        "coordinates": [
          140.60110552564285,
          53.199618911159206
        ]
      }
    },
    {
      "type": "Feature",
      "properties": {
        "norad_id": 37400,
        "name": "FENGYUN 1C DEB",
        "group": "fengyun-1c-debris",
        "lat": -51.122599266993184,
        "lon": 5.51455310641811,
        "alt_km": 1218.3775231062082,
        "timestamp": "2025-12-26T11:25:45.482151+00:00",
        "meta_object_name": "FENGYUN 1C DEB",
        "meta_object_id": "1999-025EFS",
        "meta_epoch": "2025-12-24T07:16:05.399328",
        "meta_mean_motion": 13.63657773,
        "meta_eccentricity": 0.04018246,
        "meta_inclination": 98.8375,
        "meta_ra_of_asc_node": 194.6593,
        "meta_arg_of_pericenter": 106.3688,
        "meta_mean_anomaly": 258.2022,
        "meta_ephemeris_type": 0,
        "meta_classification_type": "U",
        "meta_norad_cat_id": 37400,
        "meta_element_set_no": 999,
        "meta_rev_at_epoch": 80351,
        "meta_bstar": 0.00039634008,
        "meta_mean_motion_dot": 5.07e-06,
        "meta_mean_motion_ddot": 0,
        "tle_line1": "1 37400U 99025EFS 25358.30284027  .00000507  00000+0  39634-3 0  9997",
        "tle_line2": "2 37400  98.8375 194.6593 0401824 106.3688 258.2022 13.63657773803510"
      },
      "geometry": {
        "type": "Point",
        "coordinates": [
          5.51455310641811,
          -51.122599266993184
        ]
      }
    },
    {
      "type": "Feature",
      "properties": {
        "norad_id": 37404,
        "name": "FENGYUN 1C DEB",
        "group": "fengyun-1c-debris",
        "lat": 64.75016021342806,
        "lon": -158.6650274040978,
        "alt_km": 747.9386625776324,
        "timestamp": "2025-12-26T11:25:45.482160+00:00",
        "meta_object_name": "FENGYUN 1C DEB",
        "meta_object_id": "1999-025EFW",
        "meta_epoch": "2025-12-22T06:21:11.904768",
        "meta_mean_motion": 14.31671583,
        "meta_eccentricity": 0.00448603,
        "meta_inclination": 98.4521,
        "meta_ra_of_asc_node": 358.8573,
        "meta_arg_of_pericenter": 134.3653,
        "meta_mean_anomaly": 245.751,
        "meta_ephemeris_type": 0,
        "meta_classification_type": "U",
        "meta_norad_cat_id": 37404,
        "meta_element_set_no": 999,
        "meta_rev_at_epoch": 82877,
        "meta_bstar": 0.00061046451,
        "meta_mean_motion_dot": 1.603e-05,
        "meta_mean_motion_ddot": 0,
        "tle_line1": "1 37404U 99025EFW 25356.26472112  .00001603  00000+0  61046-3 0  9998",
        "tle_line2": "2 37404  98.4521 358.8573 0044860 134.3653 245.7510 14.31671583828770"
      },
      "geometry": {
        "type": "Point",
        "coordinates": [
          -158.6650274040978,
          64.75016021342806
        ]
      }
    },
    {
      "type": "Feature",
      "properties": {
        "norad_id": 37406,
        "name": "FENGYUN 1C DEB",
        "group": "fengyun-1c-debris",
        "lat": 57.174310933963234,
        "lon": 64.97038782360536,
        "alt_km": 901.1452743223463,
        "timestamp": "2025-12-26T11:25:45.482169+00:00",
        "meta_object_name": "FENGYUN 1C DEB",
        "meta_object_id": "1999-025EFY",
        "meta_epoch": "2025-12-22T21:25:18.983712",
        "meta_mean_motion": 14.04322648,
        "meta_eccentricity": 0.0149002,
        "meta_inclination": 98.4422,
        "meta_ra_of_asc_node": 228.3273,
        "meta_arg_of_pericenter": 237.6603,
        "meta_mean_anomaly": 138.5268,
        "meta_ephemeris_type": 0,
        "meta_classification_type": "U",
        "meta_norad_cat_id": 37406,
        "meta_element_set_no": 999,
        "meta_rev_at_epoch": 63375,
        "meta_bstar": 0.00087973,
        "meta_mean_motion_dot": 1.504e-05,
        "meta_mean_motion_ddot": 0,
        "tle_line1": "1 37406U 99025EFY 25356.89258083  .00001504  00000+0  87973-3 0  9995",
        "tle_line2": "2 37406  98.4422 228.3273 0149002 237.6603 138.5268 14.04322648633752"
      },
      "geometry": {
        "type": "Point",
        "coordinates": [
          64.97038782360536,
          57.174310933963234
        ]
      }
    },
    {
      "type": "Feature",
      "properties": {
        "norad_id": 37415,
        "name": "FENGYUN 1C DEB",
        "group": "fengyun-1c-debris",
        "lat": 54.043462183624484,
        "lon": 94.4377207869373,
        "alt_km": 1061.5079908123134,
        "timestamp": "2025-12-26T11:25:45.482178+00:00",
        "meta_object_name": "FENGYUN 1C DEB",
        "meta_object_id": "1999-025EGH",
        "meta_epoch": "2025-12-23T13:53:12.939072",
        "meta_mean_motion": 13.5209761,
        "meta_eccentricity": 0.02853312,
        "meta_inclination": 98.9814,
        "meta_ra_of_asc_node": 104.4038,
        "meta_arg_of_pericenter": 154.7014,
        "meta_mean_anomaly": 206.8414,
        "meta_ephemeris_type": 0,
        "meta_classification_type": "U",
        "meta_norad_cat_id": 37415,
        "meta_element_set_no": 999,
        "meta_rev_at_epoch": 62468,
        "meta_bstar": 0.00032333843,
        "meta_mean_motion_dot": 2.38e-06,
        "meta_mean_motion_ddot": 0,
        "tle_line1": "1 37415U 99025EGH 25357.57862198  .00000238  00000+0  32334-3 0  9993",
        "tle_line2": "2 37415  98.9814 104.4038 0285331 154.7014 206.8414 13.52097610624680"
      },
      "geometry": {
        "type": "Point",
        "coordinates": [
          94.4377207869373,
          54.043462183624484
        ]
      }
    },
    {
      "type": "Feature",
      "properties": {
        "norad_id": 37417,
        "name": "FENGYUN 1C DEB",
        "group": "fengyun-1c-debris",
        "lat": 50.4643003220635,
        "lon": -17.904985878714506,
        "alt_km": 919.7127624847499,
        "timestamp": "2025-12-26T11:25:45.482186+00:00",
        "meta_object_name": "FENGYUN 1C DEB",
        "meta_object_id": "1999-025EGK",
        "meta_epoch": "2025-12-23T18:20:46.512672",
        "meta_mean_motion": 14.07401894,
        "meta_eccentricity": 0.00785702,
        "meta_inclination": 98.7977,
        "meta_ra_of_asc_node": 350.2692,
        "meta_arg_of_pericenter": 229.3558,
        "meta_mean_anomaly": 130.0762,
        "meta_ephemeris_type": 0,
        "meta_classification_type": "U",
        "meta_norad_cat_id": 37417,
        "meta_element_set_no": 999,
        "meta_rev_at_epoch": 68505,
        "meta_bstar": 0.00036509896,
        "meta_mean_motion_dot": 5.88e-06,
        "meta_mean_motion_ddot": 0,
        "tle_line1": "1 37417U 99025EGK 25357.76442723  .00000588  00000+0  36510-3 0  9992",
        "tle_line2": "2 37417  98.7977 350.2692 0078570 229.3558 130.0762 14.07401894685050"
      },
      "geometry": {
        "type": "Point",
        "coordinates": [
          -17.904985878714506,
          50.4643003220635
        ]
      }
    },
    {
      "type": "Feature",
      "properties": {
        "norad_id": 37418,
        "name": "FENGYUN 1C DEB",
        "group": "fengyun-1c-debris",
        "lat": 3.022509265412953,
        "lon": 68.52243685598025,
        "alt_km": 2006.5626199224944,
        "timestamp": "2025-12-26T11:25:45.482195+00:00",
        "meta_object_name": "FENGYUN 1C DEB",
        "meta_object_id": "1999-025EGL",
        "meta_epoch": "2025-12-19T23:37:42.567744",
        "meta_mean_motion": 11.95144251,
        "meta_eccentricity": 0.10761283,
        "meta_inclination": 98.6118,
        "meta_ra_of_asc_node": 243.7385,
        "meta_arg_of_pericenter": 305.6539,
        "meta_mean_anomaly": 44.8873,
        "meta_ephemeris_type": 0,
        "meta_classification_type": "U",
        "meta_norad_cat_id": 37418,
        "meta_element_set_no": 999,
        "meta_rev_at_epoch": 49571,
        "meta_bstar": -0.00092644522,
        "meta_mean_motion_dot": -4.14e-06,
        "meta_mean_motion_ddot": 0,
        "tle_line1": "1 37418U 99025EGL 25353.98452046 -.00000414  00000+0 -92645-3 0  9993",
        "tle_line2": "2 37418  98.6118 243.7385 1076128 305.6539  44.8873 11.95144251495719"
      },
      "geometry": {
        "type": "Point",
        "coordinates": [
          68.52243685598025,
          3.022509265412953
        ]
      }
    }
  ]
}